{
  "type": "FeatureCollection",
  "features": [
    {
      "type": "Feature",
      "properties": {
        "norad_id": 66580,
        "name": "STARLINK-35872",
        "group": "last-30-days",
        "lat": -41.63221454011135,
        "lon": 30.706115969277263,
        "alt_km": 416.41879041204356,
        "timestamp": "2025-12-15T19:00:44.076807+00:00",
        "meta_object_name": "STARLINK-35872",
        "meta_object_id": "2025-268Z",
        "meta_epoch": "2025-12-14T01:36:22.894560",
        "meta_mean_motion": 15.50568275,
        "meta_eccentricity": 0.00015851,
        "meta_inclination": 43.0001,
        "meta_ra_of_asc_node": 113.3277,
        "meta_arg_of_pericenter": 281.2835,
        "meta_mean_anomaly": 78.7847,
        "meta_ephemeris_type": 0,
        "meta_classification_type": "U",
        "meta_norad_cat_id": 66580,
        "meta_element_set_no": 999,
        "meta_rev_at_epoch": 483,
        "meta_bstar": 0.0015590245,
        "meta_mean_motion_dot": 0.00092168,
        "meta_mean_motion_ddot": 0,
        "tle_line1": "1 66580U 25268Z   25348.06693165  .00092168  00000+0  15590-2 0  9993",
        "tle_line2": "2 66580  43.0001 113.3277 0001585 281.2835  78.7847 15.50568275  4837"
      },
      "geometry": {
        "type": "Point",
        "coordinates": [
          30.706115969277263,
          -41.63221454011135
        ]
      }
    },
    {
      "type": "Feature",
      "properties": {
        "norad_id": 66581,
        "name": "STARLINK-35744",
        "group": "last-30-days",
        "lat": -41.18630846837068,
        "lon": 33.34112373545468,
        "alt_km": 416.39829073088003,
        "timestamp": "2025-12-15T19:00:44.076817+00:00",
        "meta_object_name": "STARLINK-35744",
        "meta_object_id": "2025-268AA",
        "meta_epoch": "2025-12-14T01:35:53.350080",
        "meta_mean_motion": 15.50571375,
        "meta_eccentricity": 0.00014263,
        "meta_inclination": 43.0001,
        "meta_ra_of_asc_node": 113.3243,
        "meta_arg_of_pericenter": 269.0032,
        "meta_mean_anomaly": 91.0665,
        "meta_ephemeris_type": 0,
        "meta_classification_type": "U",
        "meta_norad_cat_id": 66581,
        "meta_element_set_no": 999,
        "meta_rev_at_epoch": 483,
        "meta_bstar": 0.0017111745,
        "meta_mean_motion_dot": 0.00101326,
        "meta_mean_motion_ddot": 0,
        "tle_line1": "1 66581U 25268AA  25348.06658970  .00101326  00000+0  17112-2 0  9998",
        "tle_line2": "2 66581  43.0001 113.3243 0001426 269.0032  91.0665 15.50571375  4839"
      },
      "geometry": {
        "type": "Point",
        "coordinates": [
          33.34112373545468,
          -41.18630846837068
        ]
      }
    },
    {
      "type": "Feature",
      "properties": {
        "norad_id": 66582,
        "name": "STARLINK-35746",
        "group": "last-30-days",
        "lat": -40.73643685593481,
        "lon": 35.66909554815489,
        "alt_km": 416.3600047469545,
        "timestamp": "2025-12-15T19:00:44.076828+00:00",
        "meta_object_name": "STARLINK-35746",
        "meta_object_id": "2025-268AB",
        "meta_epoch": "2025-12-14T01:35:23.567136",
        "meta_mean_motion": 15.50571207,
        "meta_eccentricity": 0.00016134,
        "meta_inclination": 43.0002,
        "meta_ra_of_asc_node": 113.3208,
        "meta_arg_of_pericenter": 265.7365,
        "meta_mean_anomaly": 94.3311,
        "meta_ephemeris_type": 0,
        "meta_classification_type": "U",
        "meta_norad_cat_id": 66582,
        "meta_element_set_no": 999,
        "meta_rev_at_epoch": 483,
        "meta_bstar": 0.0015470518,
        "meta_mean_motion_dot": 0.00091458,
        "meta_mean_motion_ddot": 0,
        "tle_line1": "1 66582U 25268AB  25348.06624499  .00091458  00000+0  15471-2 0  9998",
        "tle_line2": "2 66582  43.0002 113.3208 0001613 265.7365  94.3311 15.50571207  4830"
      },
      "geometry": {
        "type": "Point",
        "coordinates": [
          35.66909554815489,
          -40.73643685593481
        ]
      }
    },
    {
      "type": "Feature",
      "properties": {
        "norad_id": 66583,
        "name": "STARLINK-35941",
        "group": "last-30-days",
        "lat": -40.23566179648369,
        "lon": 37.98440058132468,
        "alt_km": 416.5477156938123,
        "timestamp": "2025-12-15T19:00:44.076846+00:00",
        "meta_object_name": "STARLINK-35941",
        "meta_object_id": "2025-268AC",
        "meta_epoch": "2025-12-14T01:34:52.816512",
        "meta_mean_motion": 15.50541302,
        "meta_eccentricity": 0.00014647,
        "meta_inclination": 43.0001,
        "meta_ra_of_asc_node": 113.3183,
        "meta_arg_of_pericenter": 256.0512,
        "meta_mean_anomaly": 104.0186,
        "meta_ephemeris_type": 0,
        "meta_classification_type": "U",
        "meta_norad_cat_id": 66583,
        "meta_element_set_no": 999,
        "meta_rev_at_epoch": 483,
        "meta_bstar": 0.0015935032,
        "meta_mean_motion_dot": 0.00094147,
        "meta_mean_motion_ddot": 0,
        "tle_line1": "1 66583U 25268AC  25348.06588908  .00094147  00000+0  15935-2 0  9996",
        "tle_line2": "2 66583  43.0001 113.3183 0001464 256.0512 104.0186 15.50541302  4835"
      },
      "geometry": {
        "type": "Point",
        "coordinates": [
          37.98440058132468,
          -40.23566179648369
        ]
      }
    },
    {
      "type": "Feature",
      "properties": {
        "norad_id": 66584,
        "name": "STARLINK-35939",
        "group": "last-30-days",
        "lat": -39.65048240826439,
        "lon": 40.415182355054526,
        "alt_km": 416.49117962749915,
        "timestamp": "2025-12-15T19:00:44.076857+00:00",
        "meta_object_name": "STARLINK-35939",
        "meta_object_id": "2025-268AD",
        "meta_epoch": "2025-12-14T01:34:24.553344",
        "meta_mean_motion": 15.50564169,
        "meta_eccentricity": 0.00013367,
        "meta_inclination": 42.9998,
        "meta_ra_of_asc_node": 113.3141,
        "meta_arg_of_pericenter": 287.5343,
        "meta_mean_anomaly": 72.5371,
        "meta_ephemeris_type": 0,
        "meta_classification_type": "U",
        "meta_norad_cat_id": 66584,
        "meta_element_set_no": 999,
        "meta_rev_at_epoch": 483,
        "meta_bstar": 0.001585673,
        "meta_mean_motion_dot": 0.00093754,
        "meta_mean_motion_ddot": 0,
        "tle_line1": "1 66584U 25268AD  25348.06556196  .00093754  00000+0  15857-2 0  9997",
        "tle_line2": "2 66584  42.9998 113.3141 0001336 287.5343  72.5371 15.50564169  4833"
      },
      "geometry": {
        "type": "Point",
        "coordinates": [
          40.415182355054526,
          -39.65048240826439
        ]
      }
    },
    {
      "type": "Feature",
      "properties": {
        "norad_id": 66585,
        "name": "STARLINK-35963",
        "group": "last-30-days",
        "lat": -39.0415601111351,
        "lon": 42.71099213924723,
        "alt_km": 416.45387100324115,
        "timestamp": "2025-12-15T19:00:44.076867+00:00",
        "meta_object_name": "STARLINK-35963",
        "meta_object_id": "2025-268AE",
        "meta_epoch": "2025-12-14T01:33:54.771264",
        "meta_mean_motion": 15.50567284,
        "meta_eccentricity": 0.00014111,
        "meta_inclination": 42.9996,
        "meta_ra_of_asc_node": 113.3117,
        "meta_arg_of_pericenter": 281.6318,
        "meta_mean_anomaly": 78.4384,
        "meta_ephemeris_type": 0,
        "meta_classification_type": "U",
        "meta_norad_cat_id": 66585,
        "meta_element_set_no": 999,
        "meta_rev_at_epoch": 483,
        "meta_bstar": 0.0014844244,
        "meta_mean_motion_dot": 0.00087687,
        "meta_mean_motion_ddot": 0,
        "tle_line1": "1 66585U 25268AE  25348.06521726  .00087687  00000+0  14844-2 0  9992",
        "tle_line2": "2 66585  42.9996 113.3117 0001411 281.6318  78.4384 15.50567284  4836"
      },
      "geometry": {
        "type": "Point",
        "coordinates": [
          42.71099213924723,
          -39.0415601111351
        ]
      }
    },
    {
      "type": "Feature",
      "properties": {
        "norad_id": 66586,
        "name": "TJS-21",
        "group": "last-30-days",
        "lat": 47.76765085224527,
        "lon": -164.25419093720205,
        "alt_km": 26470.603937275384,
        "timestamp": "2025-12-15T19:00:44.076882+00:00",
        "meta_object_name": "TJS-21",
        "meta_object_id": "2025-269A",
        "meta_epoch": "2025-12-10T17:31:22.184832",
        "meta_mean_motion": 2.00567425,
        "meta_eccentricity": 0.6805766,
        "meta_inclination": 63.269,
        "meta_ra_of_asc_node": 162.5612,
        "meta_arg_of_pericenter": 269.7806,
        "meta_mean_anomaly": 18.6565,
        "meta_ephemeris_type": 0,
        "meta_classification_type": "U",
        "meta_norad_cat_id": 66586,
        "meta_element_set_no": 999,
        "meta_rev_at_epoch": 39,
        "meta_bstar": -0.044965385,
        "meta_mean_motion_dot": 1.083e-05,
        "meta_mean_motion_ddot": 0,
        "tle_line1": "1 66586U 25269A   25344.73011788  .00001083  00000+0 -44965-1 0  9999",
        "tle_line2": "2 66586  63.2690 162.5612 6805766 269.7806  18.6565  2.00567425   392"
      },
      "geometry": {
        "type": "Point",
        "coordinates": [
          -164.25419093720205,
          47.76765085224527
        ]
      }
    }
  ]
}